OBJECT_NAME,OBJECT_ID,EPOCH,MEAN_MOTION,ECCENTRICITY,INCLINATION,RA_OF_ASC_NODE,ARG_OF_PERICENTER,MEAN_ANOMALY,EPHEMERIS_TYPE,CLASSIFICATION_TYPE,NORAD_CAT_ID,ELEMENT_SET_NO,REV_AT_EPOCH,BSTAR,MEAN_MOTION_DOT,MEAN_MOTION_DDOT
KOREASAT 5 (MUGUNGWHA 5),2006-034A,2026-07-20T06:49:23.168352,1.00271763,.00018144,1.8686,82.5799,78.9424,351.9365,0,U,29349,999,4165,0,-.361E-5,0
DIRECTV 9S,2006-043A,2026-07-20T07:03:44.275680,1.00271702,.00051132,2.5042,80.5051,33.7269,188.5676,0,U,29494,999,5171,0,-.117E-5,0
OPTUS D1,2006-043B,2026-07-20T05:17:49.618752,1.00272241,.00036908,3.1178,79.2520,36.2514,53.9084,0,U,29495,999,7245,0,-.188E-5,0
BADR-4,2006-051A,2026-07-20T06:26:55.323168,1.00274416,.00049333,2.0882,80.7600,34.9020,313.5771,0,U,29526,999,5159,0,.153E-5,0
WILDBLUE-1,2006-054A,2026-07-20T06:26:38.759424,1.00272276,.00014969,2.8865,80.0680,33.4755,169.9470,0,U,29643,999,5412,0,-.53E-6,0
SKYNET 5A,2007-007B,2026-07-20T03:19:01.187616,1.00272962,.00034427,5.3808,73.3336,48.3836,321.1685,0,U,30794,999,7103,0,-.277E-5,0
ANIK F3,2007-009A,2026-07-20T05:36:40.991328,1.00272673,.00026636,1.2811,83.4599,35.1766,144.8215,0,U,31102,999,4689,0,-.4E-7,0
ASTRA 1L,2007-016A,2026-07-20T06:10:04.437984,1.00270865,.00054292,1.4052,81.3134,36.9558,247.7620,0,U,31306,999,4531,0,-.187E-5,0
GALAXY 17 (G-17),2007-016B,2026-07-20T06:52:21.256032,1.00271026,.00037602,3.0534,79.4846,38.1962,198.4396,0,U,31307,999,7013,0,-.21E-5,0
INTELSAT 11 (IS-11),2007-044B,2026-07-20T01:26:38.727744,0.99053109,.00044248,3.6490,78.2710,99.2747,123.2027,0,U,32253,999,6877,0,-.235E-5,0
WGS F1 (USA 195),2007-046A,2026-07-20T06:04:57.429408,1.00273864,.00002989,0.0165,79.6797,51.9934,215.0762,0,U,32258,999,5266,0,-.269E-5,0
SKYNET 5B,2007-056B,2026-07-20T06:24:18.074304,1.00269695,.0003614,5.3327,73.1059,42.9939,303.1219,0,U,32294,999,6852,0,.135E-5,0
ASTRA 4A,2007-057A,2026-07-20T06:18:26.136000,1.00273494,.00026344,0.0603,271.3778,212.5629,273.5056,0,U,32299,999,5197,0,.31E-6,0
HORIZONS-2,2007-063B,2026-07-20T06:01:42.456576,1.00272600,.00036339,2.6854,80.2224,19.3413,215.0883,0,U,32388,999,6814,0,-.257E-5,0
THURAYA-3,2008-001A,2026-07-20T03:09:54.560736,1.00273646,.00023272,6.0443,35.8282,79.7869,293.4772,0,U,32404,999,6782,0,.3E-7,0
THOR 5,2008-006A,2026-07-20T06:16:56.280000,1.00273343,.00025252,0.0599,250.2572,234.7967,266.4679,0,U,32487,999,6764,0,-.11E-6,0
AMC-14,2008-011A,2026-07-20T00:27:46.617984,1.00420288,.00390373,24.0481,20.1226,8.5687,357.3671,0,U,32708,999,6850,0,-.209E-5,0
DIRECTV 11,2008-013A,2026-07-20T06:50:46.400064,1.00271427,.00000802,0.0025,191.2066,259.1433,211.2091,0,U,32729,999,4592,0,-.127E-5,0
ICO G1,2008-016A,2026-07-20T06:26:38.919264,1.00272547,.00022053,5.5313,36.0301,76.1318,189.7070,0,U,32763,999,6687,0,-.177E-5,0
VINASAT-1,2008-018A,2026-07-20T06:54:37.666080,1.00271204,.0001742,0.0392,271.9784,216.6674,45.0068,0,U,32767,999,6692,0,-.33E-5,0
STAR ONE C2,2008-018B,2026-07-20T06:42:41.403168,1.00271939,.00028022,1.3229,82.1499,22.5526,229.0357,0,U,32768,999,6698,0,-.279E-5,0
AMOS-3,2008-022A,2026-07-20T03:10:09.538176,1.00490081,.00031814,0.5382,85.7599,82.1518,241.6592,0,U,32794,999,8266,0,-.34E-6,0
GALAXY 18 (G-18),2008-024A,2026-07-20T06:21:11.470176,1.00273804,.00029253,0.0094,14.0767,106.0654,150.1832,0,U,32951,999,4618,0,.23E-6,0
ZHONGXING-9,2008-028A,2026-07-20T15:06:15.349248,1.00273219,.0003529,0.8521,84.9292,33.1514,139.2413,0,U,33051,999,6637,0,-.25E-5,0
SKYNET 5C,2008-030A,2026-07-20T01:26:38.727744,1.00272484,.00043194,3.8710,76.6505,48.6715,176.3911,0,U,33055,999,6628,0,-.144E-5,0
TURKSAT 3A,2008-030B,2026-07-20T04:46:22.635840,1.00273312,.00049979,0.0477,79.1656,20.1339,312.2448,0,U,33056,999,5268,0,.144E-5,0
ECHOSTAR 11,2008-035A,2026-07-20T05:41:19.133664,1.00271807,.00023749,1.0887,83.8059,27.0016,162.7222,0,U,33207,999,5154,0,-.6E-6,0
SUPERBIRD-C2,2008-038A,2026-07-20T06:55:52.546368,1.00271250,.00063863,2.4444,80.8538,39.8413,57.3381,0,U,33274,999,10606,0,-.31E-5,0
INMARSAT 4-F3,2008-039A,2026-07-20T06:51:12.517920,1.00272233,.00026055,4.3211,31.7027,93.9577,177.2181,0,U,33278,999,4687,0,-.144E-5,0
NIMIQ 4,2008-044A,2026-07-20T06:36:38.162016,1.00270428,.00018098,0.0202,57.2465,53.9648,203.9906,0,U,33373,999,6531,0,-.222E-5,0
GALAXY 19 (G-19),2008-045A,2026-07-20T06:53:52.999008,1.00271730,.00025279,0.0655,254.5331,235.4025,174.5924,0,U,33376,999,6523,0,-.141E-5,0
ASTRA 1M,2008-057A,2026-07-20T06:22:40.730016,1.00272311,.00046802,0.3795,82.8564,43.4433,286.7735,0,U,33436,999,4606,0,.118E-5,0
