KOREASAT 5 (MUGUNGWHA 5)
1 29349U 06034A   26201.28429593 -.00000361  00000+0  00000+0 0  9992
2 29349   1.8686  82.5799 0001814  78.9424 351.9365  1.00271763 41651
DIRECTV 9S              
1 29494U 06043A   26201.29426245 -.00000117  00000+0  00000+0 0  9994
2 29494   2.5042  80.5051 0005113  33.7269 188.5676  1.00271702 51717
OPTUS D1                
1 29495U 06043B   26201.22071318 -.00000188  00000+0  00000+0 0  9993
2 29495   3.1178  79.2520 0003690  36.2514  53.9084  1.00272241 72451
BADR-4                  
1 29526U 06051A   26201.26869587  .00000153  00000+0  00000+0 0  9995
2 29526   2.0882  80.7600 0004933  34.9020 313.5771  1.00274416 51596
WILDBLUE-1              
1 29643U 06054A   26201.26850416 -.00000053  00000+0  00000+0 0  9999
2 29643   2.8865  80.0680 0001496  33.4755 169.9470  1.00272276 54129
SKYNET 5A               
1 30794U 07007B   26201.13820819 -.00000277  00000+0  00000+0 0  9995
2 30794   5.3808  73.3336 0003442  48.3836 321.1685  1.00272962 71035
ANIK F3                 
1 31102U 07009A   26201.23380777 -.00000004  00000+0  00000+0 0  9994
2 31102   1.2811  83.4599 0002663  35.1766 144.8215  1.00272673 46895
ASTRA 1L                
1 31306U 07016A   26201.25699581 -.00000187  00000+0  00000+0 0  9998
2 31306   1.4052  81.3134 0005429  36.9558 247.7620  1.00270865 45313
GALAXY 17 (G-17)        
1 31307U 07016B   26201.28635713 -.00000210  00000+0  00000+0 0  9996
2 31307   3.0534  79.4846 0003760  38.1962 198.4396  1.00271026 70134
INTELSAT 11 (IS-11)     
1 32253U 07044B   26201.06017046 -.00000235  00000+0  00000+0 0  9994
2 32253   3.6490  78.2710 0004424  99.2747 123.2027  0.99053109 68777
WGS F1 (USA 195)        
1 32258U 07046A   26201.25344247 -.00000269  00000+0  00000+0 0  9995
2 32258   0.0165  79.6797 0000298  51.9934 215.0762  1.00273864 52662
SKYNET 5B               
1 32294U 07056B   26201.26687586  .00000135  00000+0  00000+0 0  9994
2 32294   5.3327  73.1059 0003614  42.9939 303.1219  1.00269695 68525
ASTRA 4A                
1 32299U 07057A   26201.26280250  .00000031  00000+0  00000+0 0  9992
2 32299   0.0603 271.3778 0002634 212.5629 273.5056  1.00273494 51973
HORIZONS-2              
1 32388U 07063B   26201.25118584 -.00000257  00000+0  00000+0 0  9998
2 32388   2.6854  80.2224 0003633  19.3413 215.0883  1.00272600 68149
THURAYA-3               
1 32404U 08001A   26201.13188149  .00000003  00000+0  00000+0 0  9999
2 32404   6.0443  35.8282 0002327  79.7869 293.4772  1.00273646 67826
THOR 5                  
1 32487U 08006A   26201.26176250 -.00000011  00000+0  00000+0 0  9999
2 32487   0.0599 250.2572 0002525 234.7967 266.4679  1.00273343 67640
AMC-14                  
1 32708U 08011A   26201.01928956 -.00000209  00000+0  00000+0 0  9991
2 32708  24.0481  20.1226 0039037   8.5687 357.3671  1.00420288 68506
DIRECTV 11              
1 32729U 08013A   26201.28525926 -.00000127  00000+0  00000+0 0  9994
2 32729   0.0025 191.2066 0000080 259.1433 211.2091  1.00271427 45922
ICO G1                  
1 32763U 08016A   26201.26850601 -.00000177  00000+0  00000+0 0  9999
2 32763   5.5313  36.0301 0002205  76.1318 189.7070  1.00272547 66875
VINASAT-1               
1 32767U 08018A   26201.28793595 -.00000330  00000+0  00000+0 0  9996
2 32767   0.0392 271.9784 0001742 216.6674  45.0068  1.00271204 66928
STAR ONE C2             
1 32768U 08018B   26201.27964587 -.00000279  00000+0  00000+0 0  9999
2 32768   1.3229  82.1499 0002802  22.5526 229.0357  1.00271939 66981
AMOS-3                  
1 32794U 08022A   26201.13205484 -.00000034  00000+0  00000+0 0  9991
2 32794   0.5382  85.7599 0003181  82.1518 241.6592  1.00490081 82660
GALAXY 18 (G-18)        
1 32951U 08024A   26201.26471609  .00000023  00000+0  00000+0 0  9993
2 32951   0.0094  14.0767 0002925 106.0654 150.1832  1.00273804 46184
ZHONGXING-9             
1 33051U 08028A   26201.62934432 -.00000250  00000+0  00000+0 0  9990
2 33051   0.8521  84.9292 0003529  33.1514 139.2413  1.00273219 66370
SKYNET 5C               
1 33055U 08030A   26201.06017046 -.00000144  00000+0  00000+0 0  9990
2 33055   3.8710  76.6505 0004319  48.6715 176.3911  1.00272484 66282
TURKSAT 3A              
1 33056U 08030B   26201.19887310  .00000144  00000+0  00000+0 0  9993
2 33056   0.0477  79.1656 0004997  20.1339 312.2448  1.00273312 52682
ECHOSTAR 11             
1 33207U 08035A   26201.23702701 -.00000060  00000+0  00000+0 0  9999
2 33207   1.0887  83.8059 0002374  27.0016 162.7222  1.00271807 51549
SUPERBIRD-C2            
1 33274U 08038A   26201.28880262 -.00000310  00000+0  00000+0 0  9998
2 33274   2.4444  80.8538 0006386  39.8413  57.3381  1.00271250106060
INMARSAT 4-F3           
1 33278U 08039A   26201.28556155 -.00000144  00000+0  00000+0 0  9999
2 33278   4.3211  31.7027 0002605  93.9577 177.2181  1.00272233 46871
NIMIQ 4                 
1 33373U 08044A   26201.27544169 -.00000222  00000+0  00000+0 0  9999
2 33373   0.0202  57.2465 0001809  53.9648 203.9906  1.00270428 65315
GALAXY 19 (G-19)        
1 33376U 08045A   26201.28741897 -.00000141  00000+0  00000+0 0  9991
2 33376   0.0655 254.5331 0002527 235.4025 174.5924  1.00271730 65239
ASTRA 1M                
1 33436U 08057A   26201.26574919  .00000118  00000+0  00000+0 0  9991
2 33436   0.3795  82.8564 0004680  43.4433 286.7735  1.00272311 46068
